start=new Date('2023-04-29T00:00:00.000Z').valueOf();
sats=[{"COUNTRY_CODE":"US","ECCENTRICITY":"0.00012270","MEAN_MOTION_DDOT":"0.0000000000000","FILE":"3895770","MEAN_MOTION_DOT":"0.00010446","CENTER_NAME":"EARTH","RA_OF_ASC_NODE":"185.5965","OBJECT_NAME":"STARLINK-3324","LAUNCH_DATE":"2022-01-06","EPHEMERIS_TYPE":"0","REV_AT_EPOCH":"7247","ELEMENT_SET_NO":"999","PERIOD":"95.437","EPOCH":"2023-04-28T12:15:25.833024","OBJECT_TYPE":"PAYLOAD","NORAD_CAT_ID":"50814","MEAN_ELEMENT_THEORY":"SGP4","RCS_SIZE":"LARGE","SITE":"AFETR","TLE_LINE1":"1 50814U 22001M   23118.51071566  .00010446  00000-0  67333-3 0  9999","ARG_OF_PERICENTER":"110.4966","OBJECT_ID":"2022-001M","CLASSIFICATION_TYPE":"U","INCLINATION":"53.2143","PERIAPSIS":"538.878","TLE_LINE2":"2 50814  53.2143 185.5965 0001227 110.4966 249.6158 15.08846129 72475","REF_FRAME":"TEME","SEMIMAJOR_AXIS":"6917.862","MEAN_MOTION":"15.08846129","GP_ID":"230886580","MEAN_ANOMALY":"249.6158","DECAY_DATE":null,"APOAPSIS":"540.575","TIME_SYSTEM":"UTC","BSTAR":"0.00067333000000"},{"OBJECT_ID":"2022-001N","TLE_LINE1":"1 50815U 22001N   23118.52175457  .00004235  00000-0  28387-3 0  9990","ARG_OF_PERICENTER":"95.2777","SITE":"AFETR","MEAN_MOTION":"15.08858203","SEMIMAJOR_AXIS":"6917.825","INCLINATION":"53.2151","TLE_LINE2":"2 50815  53.2151 185.5479 0001088  95.2777 264.8339 15.08858203 72476","PERIAPSIS":"538.937","REF_FRAME":"TEME","CLASSIFICATION_TYPE":"U","MEAN_ANOMALY":"264.8339","GP_ID":"230887329","BSTAR":"0.00028387000000","TIME_SYSTEM":"UTC","DECAY_DATE":null,"APOAPSIS":"540.442","MEAN_MOTION_DDOT":"0.0000000000000","ECCENTRICITY":"0.00010880","COUNTRY_CODE":"US","OBJECT_NAME":"STARLINK-3234","LAUNCH_DATE":"2022-01-06","CENTER_NAME":"EARTH","RA_OF_ASC_NODE":"185.5479","MEAN_MOTION_DOT":"0.00004235","FILE":"3895770","PERIOD":"95.436","REV_AT_EPOCH":"7247","ELEMENT_SET_NO":"999","EPHEMERIS_TYPE":"0","RCS_SIZE":"LARGE","MEAN_ELEMENT_THEORY":"SGP4","NORAD_CAT_ID":"50815","EPOCH":"2023-04-28T12:31:19.594848","OBJECT_TYPE":"PAYLOAD"},{"ECCENTRICITY":"0.00010980","MEAN_MOTION_DDOT":"0.0000000000000","COUNTRY_CODE":"US","LAUNCH_DATE":"2022-01-06","OBJECT_NAME":"STARLINK-3342","MEAN_MOTION_DOT":"0.00006910","FILE":"3895770","RA_OF_ASC_NODE":"185.6796","CENTER_NAME":"EARTH","PERIOD":"95.436","EPHEMERIS_TYPE":"0","ELEMENT_SET_NO":"999","REV_AT_EPOCH":"7246","MEAN_ELEMENT_THEORY":"SGP4","RCS_SIZE":"LARGE","OBJECT_TYPE":"PAYLOAD","EPOCH":"2023-04-28T11:48:55.688544","NORAD_CAT_ID":"50816","ARG_OF_PERICENTER":"100.2305","TLE_LINE1":"1 50816U 22001P   23118.49231121  .00006910  00000-0  45157-3 0  9994","OBJECT_ID":"2022-001P","SITE":"AFETR","SEMIMAJOR_AXIS":"6917.817","MEAN_MOTION":"15.08860673","CLASSIFICATION_TYPE":"U","TLE_LINE2":"2 50816  53.2151 185.6796 0001098 100.2305 259.8811 15.08860673 72467","REF_FRAME":"TEME","PERIAPSIS":"538.923","INCLINATION":"53.2151","MEAN_ANOMALY":"259.8811","GP_ID":"230885579","BSTAR":"0.00045157000000","DECAY_DATE":null,"APOAPSIS":"540.442","TIME_SYSTEM":"UTC"},{"ELEMENT_SET_NO":"999","REV_AT_EPOCH":"7247","EPHEMERIS_TYPE":"0","PERIOD":"95.436","NORAD_CAT_ID":"50817","OBJECT_TYPE":"PAYLOAD","EPOCH":"2023-04-28T12:26:01.538304","RCS_SIZE":"LARGE","MEAN_ELEMENT_THEORY":"SGP4","COUNTRY_CODE":"US","MEAN_MOTION_DDOT":"0.0000000000000","ECCENTRICITY":"0.00010210","RA_OF_ASC_NODE":"185.5627","CENTER_NAME":"EARTH","MEAN_MOTION_DOT":"0.00008050","FILE":"3895770","LAUNCH_DATE":"2022-01-06","OBJECT_NAME":"STARLINK-3341","GP_ID":"230885829","MEAN_ANOMALY":"255.6832","TIME_SYSTEM":"UTC","APOAPSIS":"540.383","DECAY_DATE":null,"BSTAR":"0.00052296000000","SITE":"AFETR","OBJECT_ID":"2022-001Q","ARG_OF_PERICENTER":"104.4273","TLE_LINE1":"1 50817U 22001Q   23118.51807336  .00008050  00000-0  52296-3 0  9994","TLE_LINE2":"2 50817  53.2152 185.5627 0001021 104.4273 255.6832 15.08862483 72476","REF_FRAME":"TEME","PERIAPSIS":"538.970","INCLINATION":"53.2152","CLASSIFICATION_TYPE":"U","MEAN_MOTION":"15.08862483","SEMIMAJOR_AXIS":"6917.812"},{"RCS_SIZE":"LARGE","MEAN_ELEMENT_THEORY":"SGP4","NORAD_CAT_ID":"50818","OBJECT_TYPE":"PAYLOAD","EPOCH":"2023-04-28T16:45:40.638528","PERIOD":"95.437","ELEMENT_SET_NO":"999","REV_AT_EPOCH":"7377","EPHEMERIS_TYPE":"0","LAUNCH_DATE":"2022-01-06","OBJECT_NAME":"STARLINK-3336","RA_OF_ASC_NODE":"184.7572","CENTER_NAME":"EARTH","FILE":"3895991","MEAN_MOTION_DOT":"0.00003116","MEAN_MOTION_DDOT":"0.0000000000000","ECCENTRICITY":"0.00014780","COUNTRY_CODE":"US","BSTAR":"0.00021367000000","TIME_SYSTEM":"UTC","APOAPSIS":"540.720","DECAY_DATE":null,"MEAN_ANOMALY":"291.0866","GP_ID":"230895000","MEAN_MOTION":"15.08855705","SEMIMAJOR_AXIS":"6917.832","TLE_LINE2":"2 50818  53.2167 184.7572 0001478  69.0284 291.0866 15.08855705 73771","REF_FRAME":"TEME","PERIAPSIS":"538.675","INCLINATION":"53.2167","CLASSIFICATION_TYPE":"U","OBJECT_ID":"2022-001R","TLE_LINE1":"1 50818U 22001R   23118.69838702  .00003116  00000-0  21367-3 0  9998","ARG_OF_PERICENTER":"69.0284","SITE":"AFETR"},{"REV_AT_EPOCH":"7247","ELEMENT_SET_NO":"999","EPHEMERIS_TYPE":"0","PERIOD":"95.436","NORAD_CAT_ID":"50819","EPOCH":"2023-04-28T12:10:07.219200","OBJECT_TYPE":"PAYLOAD","RCS_SIZE":"LARGE","MEAN_ELEMENT_THEORY":"SGP4","COUNTRY_CODE":"US","MEAN_MOTION_DDOT":"0.0000000000000","ECCENTRICITY":"0.00006860","CENTER_NAME":"EARTH","RA_OF_ASC_NODE":"185.6119","FILE":"3895770","MEAN_MOTION_DOT":"0.00006691","OBJECT_NAME":"STARLINK-3327","LAUNCH_DATE":"2022-01-06","GP_ID":"230886831","MEAN_ANOMALY":"277.2283","TIME_SYSTEM":"UTC","APOAPSIS":"540.149","DECAY_DATE":null,"BSTAR":"0.00043777000000","SITE":"AFETR","OBJECT_ID":"2022-001S","TLE_LINE1":"1 50819U 22001S   23118.50702800  .00006691  00000-0  43777-3 0  9998","ARG_OF_PERICENTER":"82.8787","INCLINATION":"53.2151","PERIAPSIS":"539.199","TLE_LINE2":"2 50819  53.2151 185.6119 0000686  82.8787 277.2283 15.08863370 72475","REF_FRAME":"TEME","CLASSIFICATION_TYPE":"U","MEAN_MOTION":"15.08863370","SEMIMAJOR_AXIS":"6917.809"},{"RA_OF_ASC_NODE":"185.6958","CENTER_NAME":"EARTH","MEAN_MOTION_DOT":"0.00002789","FILE":"3895770","LAUNCH_DATE":"2022-01-06","OBJECT_NAME":"STARLINK-3339","COUNTRY_CODE":"US","MEAN_MOTION_DDOT":"0.0000000000000","ECCENTRICITY":"0.00011320","NORAD_CAT_ID":"50820","OBJECT_TYPE":"PAYLOAD","EPOCH":"2023-04-28T11:43:37.654464","RCS_SIZE":"LARGE","MEAN_ELEMENT_THEORY":"SGP4","ELEMENT_SET_NO":"999","REV_AT_EPOCH":"7246","EPHEMERIS_TYPE":"0","PERIOD":"95.437","REF_FRAME":"TEME","TLE_LINE2":"2 50820  53.2152 185.6958 0001132 107.9100 252.2015 15.08853299 72468","PERIAPSIS":"538.922","INCLINATION":"53.2152","CLASSIFICATION_TYPE":"U","MEAN_MOTION":"15.08853299","SEMIMAJOR_AXIS":"6917.840","SITE":"AFETR","OBJECT_ID":"2022-001T","TLE_LINE1":"1 50820U 22001T   23118.48863026  .00002789  00000-0  19320-3 0  9996","ARG_OF_PERICENTER":"107.9100","TIME_SYSTEM":"UTC","APOAPSIS":"540.488","DECAY_DATE":null,"BSTAR":"0.00019320000000","GP_ID":"230886079","MEAN_ANOMALY":"252.2015"},{"EPHEMERIS_TYPE":"0","ELEMENT_SET_NO":"999","REV_AT_EPOCH":"7377","PERIOD":"95.437","OBJECT_TYPE":"PAYLOAD","EPOCH":"2023-04-28T20:56:07.296288","NORAD_CAT_ID":"50821","MEAN_ELEMENT_THEORY":"SGP4","RCS_SIZE":"LARGE","COUNTRY_CODE":"US","ECCENTRICITY":"0.00008960","MEAN_MOTION_DDOT":"0.0000000000000","FILE":"3895982","MEAN_MOTION_DOT":"-0.00001568","RA_OF_ASC_NODE":"183.9883","CENTER_NAME":"EARTH","LAUNCH_DATE":"2022-01-06","OBJECT_NAME":"STARLINK-3346","GP_ID":"230895036","MEAN_ANOMALY":"250.9864","APOAPSIS":"540.320","DECAY_DATE":null,"TIME_SYSTEM":"UTC","BSTAR":"-0.00008044300000","SITE":"AFETR","ARG_OF_PERICENTER":"109.1225","TLE_LINE1":"1 50821U 22001U   23118.87230667 -.00001568  00000-0 -80443-4 0  9990","OBJECT_ID":"2022-001U","CLASSIFICATION_TYPE":"U","PERIAPSIS":"539.080","TLE_LINE2":"2 50821  53.2163 183.9883 0000896 109.1225 250.9864 15.08854873 73778","REF_FRAME":"TEME","INCLINATION":"53.2163","SEMIMAJOR_AXIS":"6917.835","MEAN_MOTION":"15.08854873"},{"OBJECT_ID":"2022-001V","ARG_OF_PERICENTER":"97.3866","TLE_LINE1":"1 50822U 22001V   23118.67999437 -.00004863  00000-0 -28770-3 0  9991","SITE":"AFETR","MEAN_MOTION":"15.08835307","SEMIMAJOR_AXIS":"6917.895","INCLINATION":"53.2159","TLE_LINE2":"2 50822  53.2159 184.8377 0000843  97.3866 262.7222 15.08835307 73740","REF_FRAME":"TEME","PERIAPSIS":"539.177","CLASSIFICATION_TYPE":"U","MEAN_ANOMALY":"262.7222","GP_ID":"230891839","BSTAR":"-0.00028770000000","TIME_SYSTEM":"UTC","APOAPSIS":"540.343","DECAY_DATE":null,"MEAN_MOTION_DDOT":"0.0000000000000","ECCENTRICITY":"0.00008430","COUNTRY_CODE":"US","OBJECT_NAME":"STARLINK-3343","LAUNCH_DATE":"2022-01-06","CENTER_NAME":"EARTH","RA_OF_ASC_NODE":"184.8377","MEAN_MOTION_DOT":"-0.00004863","FILE":"3895844","PERIOD":"95.438","REV_AT_EPOCH":"7374","ELEMENT_SET_NO":"999","EPHEMERIS_TYPE":"0","RCS_SIZE":"LARGE","MEAN_ELEMENT_THEORY":"SGP4","NORAD_CAT_ID":"50822","EPOCH":"2023-04-28T16:19:11.513568","OBJECT_TYPE":"PAYLOAD"},{"BSTAR":"0.00059689000000","TIME_SYSTEM":"UTC","APOAPSIS":"540.320","DECAY_DATE":null,"MEAN_ANOMALY":"245.3346","GP_ID":"230887330","MEAN_MOTION":"15.08861122","SEMIMAJOR_AXIS":"6917.816","TLE_LINE2":"2 50823  53.2160 185.8763 0000924 114.7742 245.3346 15.08861122 72466","PERIAPSIS":"539.042","REF_FRAME":"TEME","INCLINATION":"53.2160","CLASSIFICATION_TYPE":"U","OBJECT_ID":"2022-001W","TLE_LINE1":"1 50823U 22001W   23118.44815243  .00009230  00000-0  59689-3 0  9993","ARG_OF_PERICENTER":"114.7742","SITE":"AFETR","RCS_SIZE":"LARGE","MEAN_ELEMENT_THEORY":"SGP4","NORAD_CAT_ID":"50823","OBJECT_TYPE":"PAYLOAD","EPOCH":"2023-04-28T10:45:20.369952","PERIOD":"95.436","ELEMENT_SET_NO":"999","REV_AT_EPOCH":"7246","EPHEMERIS_TYPE":"0","LAUNCH_DATE":"2022-01-06","OBJECT_NAME":"STARLINK-3334","RA_OF_ASC_NODE":"185.8763","CENTER_NAME":"EARTH","FILE":"3895770","MEAN_MOTION_DOT":"0.00009230","MEAN_MOTION_DDOT":"0.0000000000000","ECCENTRICITY":"0.00009240","COUNTRY_CODE":"US"}];
